IDEFIX & ARIANE 42P R/B 
1 27422U 02021B   26053.74268973  .00000285  00000+0  12471-3 0  9996
2 27422  98.5857 352.5291 0010810 228.6181 131.4074 14.31014448241889
AQUA                    
1 27424U 02022A   26053.89416736  .00001043  00000+0  21810-3 0  9997
2 27424  98.4148  20.9929 0000977  47.4228 337.2360 14.61936703266576
CZ-4B R/B               
1 27432U 02024C   26053.88784934  .00000023  00000+0  34586-4 0  9997
2 27432  98.8875 107.3668 0051051  65.7170 111.9562 14.14544760227141
MIDORI II (ADEOS-II)    
1 27597U 02056A   26053.89262678  .00000261  00000+0  12025-3 0  9998
2 27597  98.7743  12.2706 0002023  64.2298 295.9092 14.29272716208182
H-2A R/B                
1 27601U 02056E   26053.91345499  .00000283  00000+0  11369-3 0  9994
2 27601  98.3175  14.8441 0069589 204.7928 221.5459 14.33749719211990
CZ-4B R/B               
1 28059U 03049C   26053.94221324  .00000428  00000+0  10987-3 0  9994
2 28059  98.6865  48.2703 0047014 277.0080  82.5770 14.55003568184450
CZ-2C R/B               
1 28222U 04012C   26053.69714852  .00061479  00000+0  68164-3 0  9995
2 28222  97.7261 117.5891 0014377   9.4422 350.7103 15.62643131201931
SL-16 R/B               
1 28353U 04021B   26053.89024450  .00000175  00000+0  11581-3 0  9997
2 28353  70.9989 263.5524 0003346  43.1694 316.9691 14.14598371120747
CZ-4B R/B               
1 28415U 04035C   26053.65982596  .00009270  00000+0  32891-3 0  9991
2 28415  97.3525  88.0840 0032866  25.2669 335.0170 15.28759933177619
CZ-2C R/B               
1 28480U 04046B   26053.69044515  .00000129  00000+0  63304-4 0  9997
2 28480  98.1990 329.6068 0138960 198.7823 160.8204 14.26986569106362
ARIANE 5 R/B            
1 28499U 04049H   26053.94623927  .00000820  00000+0  96663-4 0  9990
2 28499  98.2602 221.8540 0084970  39.5555 321.1818 14.85235127143609
CZ-2D R/B               
1 28738U 05024B   26053.95039223  .00045578  00000+0  59040-3 0  9997
2 28738  97.3617  68.5722 0007466  81.8611 278.3492 15.58728759137486
