CCSDS_OMM_VERS = 2.0
CREATION_DATE  = 
ORIGINATOR     = 

OBJECT_NAME    = IDEFIX & ARIANE 42P R/B
OBJECT_ID      = 2002-021B
CENTER_NAME    = EARTH
REF_FRAME      = TEME
TIME_SYSTEM    = UTC
MEAN_ELEMENT_THEORY = SGP/SGP4

EPOCH          = 2026-02-22T17:49:28.392672
MEAN_MOTION    = 14.31014448
ECCENTRICITY   = .00108105
INCLINATION    = 98.5857
RA_OF_ASC_NODE = 352.5291
ARG_OF_PERICENTER = 228.6181
MEAN_ANOMALY   = 131.4074

EPHEMERIS_TYPE = 0
CLASSIFICATION_TYPE = U
NORAD_CAT_ID   = 27422
ELEMENT_SET_NO = 999
REV_AT_EPOCH   = 24188
BSTAR          = .12471138E-3
MEAN_MOTION_DOT = .285E-5
MEAN_MOTION_DDOT = 0

CCSDS_OMM_VERS = 2.0
CREATION_DATE  = 
ORIGINATOR     = 

OBJECT_NAME    = AQUA
OBJECT_ID      = 2002-022A
CENTER_NAME    = EARTH
REF_FRAME      = TEME
TIME_SYSTEM    = UTC
MEAN_ELEMENT_THEORY = SGP/SGP4

EPOCH          = 2026-02-22T21:27:36.059904
MEAN_MOTION    = 14.61936703
ECCENTRICITY   = .00009776
INCLINATION    = 98.4148
RA_OF_ASC_NODE = 20.9929
ARG_OF_PERICENTER = 47.4228
MEAN_ANOMALY   = 337.2360

EPHEMERIS_TYPE = 0
CLASSIFICATION_TYPE = U
NORAD_CAT_ID   = 27424
ELEMENT_SET_NO = 999
REV_AT_EPOCH   = 26657
BSTAR          = .21809913E-3
MEAN_MOTION_DOT = .1043E-4
MEAN_MOTION_DDOT = 0

CCSDS_OMM_VERS = 2.0
CREATION_DATE  = 
ORIGINATOR     = 

OBJECT_NAME    = CZ-4B R/B
OBJECT_ID      = 2002-024C
CENTER_NAME    = EARTH
REF_FRAME      = TEME
TIME_SYSTEM    = UTC
MEAN_ELEMENT_THEORY = SGP/SGP4

EPOCH          = 2026-02-22T21:18:30.182976
MEAN_MOTION    = 14.14544760
ECCENTRICITY   = .00510514
INCLINATION    = 98.8875
RA_OF_ASC_NODE = 107.3668
ARG_OF_PERICENTER = 65.7170
MEAN_ANOMALY   = 111.9562

EPHEMERIS_TYPE = 0
CLASSIFICATION_TYPE = U
NORAD_CAT_ID   = 27432
ELEMENT_SET_NO = 999
REV_AT_EPOCH   = 22714
BSTAR          = .3458565E-4
MEAN_MOTION_DOT = .23E-6
MEAN_MOTION_DDOT = 0

CCSDS_OMM_VERS = 2.0
CREATION_DATE  = 
ORIGINATOR     = 

OBJECT_NAME    = MIDORI II (ADEOS-II)
OBJECT_ID      = 2002-056A
CENTER_NAME    = EARTH
REF_FRAME      = TEME
TIME_SYSTEM    = UTC
MEAN_ELEMENT_THEORY = SGP/SGP4

EPOCH          = 2026-02-22T21:25:22.953792
MEAN_MOTION    = 14.29272716
ECCENTRICITY   = .00020233
INCLINATION    = 98.7743
RA_OF_ASC_NODE = 12.2706
ARG_OF_PERICENTER = 64.2298
MEAN_ANOMALY   = 295.9092

EPHEMERIS_TYPE = 0
CLASSIFICATION_TYPE = U
NORAD_CAT_ID   = 27597
ELEMENT_SET_NO = 999
REV_AT_EPOCH   = 20818
BSTAR          = .1202458E-3
MEAN_MOTION_DOT = .261E-5
MEAN_MOTION_DDOT = 0

CCSDS_OMM_VERS = 2.0
CREATION_DATE  = 
ORIGINATOR     = 

OBJECT_NAME    = H-2A R/B
OBJECT_ID      = 2002-056E
CENTER_NAME    = EARTH
REF_FRAME      = TEME
TIME_SYSTEM    = UTC
MEAN_ELEMENT_THEORY = SGP/SGP4

EPOCH          = 2026-02-22T21:55:22.511136
MEAN_MOTION    = 14.33749719
ECCENTRICITY   = .00695899
INCLINATION    = 98.3175
RA_OF_ASC_NODE = 14.8441
ARG_OF_PERICENTER = 204.7928
MEAN_ANOMALY   = 221.5459

EPHEMERIS_TYPE = 0
CLASSIFICATION_TYPE = U
NORAD_CAT_ID   = 27601
ELEMENT_SET_NO = 999
REV_AT_EPOCH   = 21199
BSTAR          = .11369213E-3
MEAN_MOTION_DOT = .283E-5
MEAN_MOTION_DDOT = 0

CCSDS_OMM_VERS = 2.0
CREATION_DATE  = 
ORIGINATOR     = 

OBJECT_NAME    = CZ-4B R/B
OBJECT_ID      = 2003-049C
CENTER_NAME    = EARTH
REF_FRAME      = TEME
TIME_SYSTEM    = UTC
MEAN_ELEMENT_THEORY = SGP/SGP4

EPOCH          = 2026-02-22T22:36:47.223936
MEAN_MOTION    = 14.55003568
ECCENTRICITY   = .00470141
INCLINATION    = 98.6865
RA_OF_ASC_NODE = 48.2703
ARG_OF_PERICENTER = 277.0080
MEAN_ANOMALY   = 82.5770

EPHEMERIS_TYPE = 0
CLASSIFICATION_TYPE = U
NORAD_CAT_ID   = 28059
ELEMENT_SET_NO = 999
REV_AT_EPOCH   = 18445
BSTAR          = .10986507E-3
MEAN_MOTION_DOT = .428E-5
MEAN_MOTION_DDOT = 0

CCSDS_OMM_VERS = 2.0
CREATION_DATE  = 
ORIGINATOR     = 

OBJECT_NAME    = CZ-2C R/B
OBJECT_ID      = 2004-012C
CENTER_NAME    = EARTH
REF_FRAME      = TEME
TIME_SYSTEM    = UTC
MEAN_ELEMENT_THEORY = SGP/SGP4

EPOCH          = 2026-02-22T16:43:53.632128
MEAN_MOTION    = 15.62643131
ECCENTRICITY   = .00143778
INCLINATION    = 97.7261
RA_OF_ASC_NODE = 117.5891
ARG_OF_PERICENTER = 9.4422
MEAN_ANOMALY   = 350.7103

EPHEMERIS_TYPE = 0
CLASSIFICATION_TYPE = U
NORAD_CAT_ID   = 28222
ELEMENT_SET_NO = 999
REV_AT_EPOCH   = 20193
BSTAR          = .68163571E-3
MEAN_MOTION_DOT = .61479E-3
MEAN_MOTION_DDOT = 0

CCSDS_OMM_VERS = 2.0
CREATION_DATE  = 
ORIGINATOR     = 

OBJECT_NAME    = SL-16 R/B
OBJECT_ID      = 2004-021B
CENTER_NAME    = EARTH
REF_FRAME      = TEME
TIME_SYSTEM    = UTC
MEAN_ELEMENT_THEORY = SGP/SGP4

EPOCH          = 2026-02-22T21:21:57.124800
MEAN_MOTION    = 14.14598371
ECCENTRICITY   = .00033465
INCLINATION    = 70.9989
RA_OF_ASC_NODE = 263.5524
ARG_OF_PERICENTER = 43.1694
MEAN_ANOMALY   = 316.9691

EPHEMERIS_TYPE = 0
CLASSIFICATION_TYPE = U
NORAD_CAT_ID   = 28353
ELEMENT_SET_NO = 999
REV_AT_EPOCH   = 12074
BSTAR          = .11581403E-3
MEAN_MOTION_DOT = .175E-5
MEAN_MOTION_DDOT = 0

CCSDS_OMM_VERS = 2.0
CREATION_DATE  = 
ORIGINATOR     = 

OBJECT_NAME    = CZ-4B R/B
OBJECT_ID      = 2004-035C
CENTER_NAME    = EARTH
REF_FRAME      = TEME
TIME_SYSTEM    = UTC
MEAN_ELEMENT_THEORY = SGP/SGP4

EPOCH          = 2026-02-22T15:50:08.962944
MEAN_MOTION    = 15.28759933
ECCENTRICITY   = .00328665
INCLINATION    = 97.3525
RA_OF_ASC_NODE = 88.0840
ARG_OF_PERICENTER = 25.2669
MEAN_ANOMALY   = 335.0170

EPHEMERIS_TYPE = 0
CLASSIFICATION_TYPE = U
NORAD_CAT_ID   = 28415
ELEMENT_SET_NO = 999
REV_AT_EPOCH   = 17761
BSTAR          = .32891302E-3
MEAN_MOTION_DOT = .927E-4
MEAN_MOTION_DDOT = 0

CCSDS_OMM_VERS = 2.0
CREATION_DATE  = 
ORIGINATOR     = 

OBJECT_NAME    = CZ-2C R/B
OBJECT_ID      = 2004-046B
CENTER_NAME    = EARTH
REF_FRAME      = TEME
TIME_SYSTEM    = UTC
MEAN_ELEMENT_THEORY = SGP/SGP4

EPOCH          = 2026-02-22T16:34:14.460960
MEAN_MOTION    = 14.26986569
ECCENTRICITY   = .01389604
INCLINATION    = 98.1990
RA_OF_ASC_NODE = 329.6068
ARG_OF_PERICENTER = 198.7823
MEAN_ANOMALY   = 160.8204

EPHEMERIS_TYPE = 0
CLASSIFICATION_TYPE = U
NORAD_CAT_ID   = 28480
ELEMENT_SET_NO = 999
REV_AT_EPOCH   = 10636
BSTAR          = .63304397E-4
MEAN_MOTION_DOT = .129E-5
MEAN_MOTION_DDOT = 0

CCSDS_OMM_VERS = 2.0
CREATION_DATE  = 
ORIGINATOR     = 

OBJECT_NAME    = ARIANE 5 R/B
OBJECT_ID      = 2004-049H
CENTER_NAME    = EARTH
REF_FRAME      = TEME
TIME_SYSTEM    = UTC
MEAN_ELEMENT_THEORY = SGP/SGP4

EPOCH          = 2026-02-22T22:42:35.072928
MEAN_MOTION    = 14.85235127
ECCENTRICITY   = .008497
INCLINATION    = 98.2602
RA_OF_ASC_NODE = 221.8540
ARG_OF_PERICENTER = 39.5555
MEAN_ANOMALY   = 321.1818

EPHEMERIS_TYPE = 0
CLASSIFICATION_TYPE = U
NORAD_CAT_ID   = 28499
ELEMENT_SET_NO = 999
REV_AT_EPOCH   = 14360
BSTAR          = .96662553E-4
MEAN_MOTION_DOT = .82E-5
MEAN_MOTION_DDOT = 0

CCSDS_OMM_VERS = 2.0
CREATION_DATE  = 
ORIGINATOR     = 

OBJECT_NAME    = CZ-2D R/B
OBJECT_ID      = 2005-024B
CENTER_NAME    = EARTH
REF_FRAME      = TEME
TIME_SYSTEM    = UTC
MEAN_ELEMENT_THEORY = SGP/SGP4

EPOCH          = 2026-02-22T22:48:33.888672
MEAN_MOTION    = 15.58728759
ECCENTRICITY   = .00074667
INCLINATION    = 97.3617
RA_OF_ASC_NODE = 68.5722
ARG_OF_PERICENTER = 81.8611
MEAN_ANOMALY   = 278.3492

EPHEMERIS_TYPE = 0
CLASSIFICATION_TYPE = U
NORAD_CAT_ID   = 28738
ELEMENT_SET_NO = 999
REV_AT_EPOCH   = 13748
BSTAR          = .5903968E-3
MEAN_MOTION_DOT = .45578E-3
MEAN_MOTION_DDOT = 0

